LANDSAT 9               
1 49260U 21088A   24049.61768865  .00000831  00000+0  19443-3 0  9991
2 49260  98.2008 121.1957 0001137 109.5471 250.5850 14.57135110127288
